[{"OBJECT_NAME":"STARLINK-36414","OBJECT_ID":"2026-008Z","EPOCH":"2026-03-09T09:59:01.911840","MEAN_MOTION":15.27598994,"ECCENTRICITY":0.00033183,"INCLINATION":42.9999,"RA_OF_ASC_NODE":206.469,"ARG_OF_PERICENTER":287.4655,"MEAN_ANOMALY":72.5833,"EPHEMERIS_TYPE":0,"CLASSIFICATION_TYPE":"U","NORAD_CAT_ID":67468,"ELEMENT_SET_NO":999,"REV_AT_EPOCH":953,"BSTAR":0.0013841496,"MEAN_MOTION_DOT":0.00038049,"MEAN_MOTION_DDOT":0},{"OBJECT_NAME":"CZ-4B R\/B","OBJECT_ID":"2019-059D","EPOCH":"2026-03-09T22:53:45.354624","MEAN_MOTION":15.13308828,"ECCENTRICITY":0.01361486,"INCLINATION":98.7209,"RA_OF_ASC_NODE":86.9492,"ARG_OF_PERICENTER":209.5346,"MEAN_ANOMALY":149.8142,"EPHEMERIS_TYPE":0,"CLASSIFICATION_TYPE":"U","NORAD_CAT_ID":44531,"ELEMENT_SET_NO":999,"REV_AT_EPOCH":35472,"BSTAR":0.00025424701,"MEAN_MOTION_DOT":5.595e-5,"MEAN_MOTION_DDOT":0}]
